NORAD_CAT_ID,OBJECT_NAME,OBJECT_TYPE,EPOCH,MEAN_MOTION,ECCENTRICITY,INCLINATION,RA_OF_ASC_NODE,ARG_OF_PERICENTER,MEAN_ANOMALY,BSTAR,MEAN_MOTION_DOT,MEAN_MOTION_DDOT,TLE_LINE0,TLE_LINE1,TLE_LINE2,SEMIMAJOR_AXIS,PERIOD,APOGEE,PERIGEE,DECAYED
53402.0,STARLINK-4499,PAYLOAD,2023-12-05 02:44:56,15.08856988,0.000146,53.2165,230.2696,102.3321,257.7834,0.0005976,9.24e-05,0.0,0 STARLINK-4499,1 53402U 22097Q   23339.11454041  .00009240  00000-0  59760-3 0  9999,2 53402  53.2165 230.2696 0001460 102.3321 257.7834 15.08856988 73889,6917.828,95.436,540.703,538.683,0.0
53402.0,STARLINK-4499,PAYLOAD,2023-12-05 23:24:56,15.08844959,0.0001344,53.216,226.4023,109.5189,250.5948,1.1816e-05,-1e-06,0.0,0 STARLINK-4499,1 53402U 22097Q   23339.97565771 -.00000100  00000-0  11816-4 0  9994,2 53402  53.2160 226.4023 0001344 109.5189 250.5948 15.08844959 73520,6917.865,95.437,540.66,538.8,0.0
53402.0,STARLINK-4499,PAYLOAD,2023-12-07 16:44:58,15.08838515,0.0001429,53.2168,218.6716,98.7939,261.3215,2.4151e-05,9.6e-07,0.0,0 STARLINK-4499,1 53402U 22097Q   23341.69790138  .00000096  00000-0  24151-4 0  9992,2 53402  53.2168 218.6716 0001429  98.7939 261.3215 15.08838515 73782,6917.885,95.438,540.738,538.761,0.0
53402.0,STARLINK-4499,PAYLOAD,2023-12-08 15:00:22,15.08840691,0.0001346,53.2165,214.5092,98.2793,261.8352,9.3539e-05,1.201e-05,0.0,0 STARLINK-4499,1 53402U 22097Q   23342.62526151  .00001201  00000-0  93539-4 0  9993,2 53402  53.2165 214.5092 0001346  98.2793 261.8352 15.08840691 74418,6917.878,95.438,540.674,538.812,0.0
53402.0,STARLINK-4499,PAYLOAD,2023-12-10 00:23:28,15.08836583,0.000176,53.2175,208.2626,88.6498,271.4696,-1.7008e-05,-5.59e-06,0.0,0 STARLINK-4499,1 53402U 22097Q   23344.01630221 -.00000559  00000-0 -17008-4 0  9996,2 53402  53.2175 208.2626 0001760  88.6498 271.4696 15.08836583 74139,6917.891,95.438,540.973,538.538,0.0
53402.0,STARLINK-4499,PAYLOAD,2023-12-10 21:03:28,15.08873841,0.0001523,53.216,204.4043,75.2977,284.8184,-0.00048242,-7.965e-05,0.0,0 STARLINK-4499,1 53402U 22097Q   23344.87741355 -.00007965  00000-0 -48242-3 0  9992,2 53402  53.2160 204.4043 0001523  75.2977 284.8184 15.08873841 74751,6917.777,95.435,540.696,538.588,0.0
53402.0,STARLINK-4499,PAYLOAD,2023-12-11 20:54:16,15.0884011,0.0001432,53.2164,199.9412,83.9059,276.2097,0.0001142,1.53e-05,0.0,0 STARLINK-4499,1 53402U 22097Q   23345.87102190  .00001530  00000-0  11420-3 0  9999,2 53402  53.2164 199.9412 0001432  83.9059 276.2097 15.08840110 74907,6917.88,95.438,540.736,538.754,0.0
53402.0,STARLINK-4499,PAYLOAD,2023-12-12 19:09:39,15.0884443,0.0001342,53.2163,195.7736,91.7321,268.3825,9.5281e-05,1.229e-05,0.0,0 STARLINK-4499,1 53402U 22097Q   23346.79837913  .00001229  00000-0  95281-4 0  9992,2 53402  53.2163 195.7736 0001342  91.7321 268.3825 15.08844430 75044,6917.867,95.437,540.66,538.803,0.0
53402.0,STARLINK-4499,PAYLOAD,2023-12-13 19:00:27,15.08840182,0.0001367,53.216,191.3089,75.9285,284.1859,2.1483e-05,5.4e-07,0.0,0 STARLINK-4499,1 53402U 22097Q   23347.79198305  .00000054  00000-0  21483-4 0  9996,2 53402  53.2160 191.3089 0001367  75.9285 284.1859 15.08840182 74709,6917.88,95.438,540.691,538.799,0.0
53402.0,STARLINK-4499,PAYLOAD,2023-12-14 20:26:37,15.08840574,0.0001418,53.2164,186.5546,77.5682,282.5469,7.3989e-05,8.9e-06,0.0,0 STARLINK-4499,1 53402U 22097Q   23348.85182214  .00000890  00000-0  73989-4 0  9992,2 53402  53.2164 186.5546 0001418  77.5682 282.5469 15.08840574 74864,6917.879,95.438,540.725,538.763,0.0
53402.0,STARLINK-4499,PAYLOAD,2023-12-15 18:42:02,15.08832651,0.0001436,53.216,182.3934,96.9501,263.1654,3.0094e-05,1.91e-06,0.0,0 STARLINK-4499,1 53402U 22097Q   23349.77919024  .00000191  00000-0  30094-4 0  9995,2 53402  53.2160 182.3934 0001436  96.9501 263.1654 15.08832651 75005,6917.903,95.438,540.761,538.774,0.0
53402.0,STARLINK-4499,PAYLOAD,2023-12-16 20:08:12,15.08838843,0.0001392,53.216,177.6367,90.6694,269.4458,6.9239e-05,8.14e-06,0.0,0 STARLINK-4499,1 53402U 22097Q   23350.83902957  .00000814  00000-0  69239-4 0  9996,2 53402  53.2160 177.6367 0001392  90.6694 269.4458 15.08838843 75164,6917.884,95.438,540.712,538.786,0.0
53402.0,STARLINK-4499,PAYLOAD,2023-12-17 19:58:59,15.08842464,0.0001367,53.216,173.1762,87.5177,272.5972,0.00014245,1.98e-05,0.0,0 STARLINK-4499,1 53402U 22097Q   23351.83262775  .00001980  00000-0  14245-3 0  9995,2 53402  53.2160 173.1762 0001367  87.5177 272.5972 15.08842464 75808,6917.873,95.437,540.684,538.792,0.0
53402.0,STARLINK-4499,PAYLOAD,2023-12-18 18:14:23,15.08842636,0.0001438,53.2161,169.0131,81.6418,278.4737,8.1174e-05,1.004e-05,0.0,0 STARLINK-4499,1 53402U 22097Q   23352.75998990  .00001004  00000-0  81174-4 0  9995,2 53402  53.2161 169.0131 0001438  81.6418 278.4737 15.08842636 75451,6917.872,95.437,540.732,538.743,0.0
53402.0,STARLINK-4499,PAYLOAD,2023-12-19 14:54:23,15.08841633,0.0001424,53.2152,165.1472,84.8545,275.261,6.2975e-05,7.14e-06,0.0,0 STARLINK-4499,1 53402U 22097Q   23353.62111025  .00000714  00000-0  62975-4 0  9993,2 53402  53.2152 165.1472 0001424  84.8545 275.2610 15.08841633 76077,6917.875,95.437,540.726,538.755,0.0
53402.0,STARLINK-4499,PAYLOAD,2023-12-19 18:05:10,15.08842917,0.0001388,53.2159,164.5525,86.69,273.4251,4.3197e-05,4e-06,0.0,0 STARLINK-4499,1 53402U 22097Q   23353.75358912  .00000400  00000-0  43197-4 0  9992,2 53402  53.2159 164.5525 0001388  86.6900 273.4251 15.08842917 76099,6917.871,95.437,540.697,538.776,0.0
53402.0,STARLINK-4499,PAYLOAD,2023-12-20 17:55:57,15.08842007,0.0001373,53.2159,160.0922,83.7776,276.3372,8.8521e-05,1.121e-05,0.0,0 STARLINK-4499,1 53402U 22097Q   23354.74718785  .00001121  00000-0  88521-4 0  9991,2 53402  53.2159 160.0922 0001373  83.7776 276.3372 15.08842007 75752,6917.874,95.437,540.689,538.789,0.0
53402.0,STARLINK-4499,PAYLOAD,2023-12-21 14:35:57,15.08841303,0.0001313,53.2162,156.2253,93.5781,266.5362,4.3602e-05,4.06e-06,0.0,0 STARLINK-4499,1 53402U 22097Q   23355.60830937  .00000406  00000-0  43602-4 0  9997,2 53402  53.2162 156.2253 0001313  93.5781 266.5362 15.08841303 76376,6917.876,95.437,540.65,538.833,0.0
53402.0,STARLINK-4499,PAYLOAD,2023-12-21 16:11:21,15.08840851,0.0001317,53.2163,155.9282,93.7127,266.4016,4.9601e-05,5.02e-06,0.0,0 STARLINK-4499,1 53402U 22097Q   23355.67454934  .00000502  00000-0  49601-4 0  9995,2 53402  53.2163 155.9282 0001317  93.7127 266.4016 15.08840851 76388,6917.878,95.438,540.654,538.832,0.0
53402.0,STARLINK-4499,PAYLOAD,2023-12-22 14:26:44,15.08843728,0.0001309,53.2163,151.7648,100.8585,259.2554,7.3249e-05,8.78e-06,0.0,0 STARLINK-4499,1 53402U 22097Q   23356.60190683  .00000878  00000-0  73249-4 0  9998,2 53402  53.2163 151.7648 0001309 100.8585 259.2554 15.08843728 76526,6917.869,95.437,540.64,538.828,0.0
53402.0,STARLINK-4499,PAYLOAD,2023-12-22 16:02:07,15.08844714,0.0001285,53.2164,151.4677,98.4167,261.6971,6.2765e-05,7.11e-06,0.0,0 STARLINK-4499,1 53402U 22097Q   23356.66814655  .00000711  00000-0  62765-4 0  9993,2 53402  53.2164 151.4677 0001285  98.4167 261.6971 15.08844714 76534,6917.866,95.437,540.62,538.842,0.0
53402.0,STARLINK-4499,PAYLOAD,2023-12-23 14:17:32,15.08837464,0.0001214,53.2165,147.3058,92.5707,267.5424,4.1719e-05,3.76e-06,0.0,0 STARLINK-4499,1 53402U 22097Q   23357.59551288  .00000376  00000-0  41719-4 0  9999,2 53402  53.2165 147.3058 0001214  92.5707 267.5424 15.08837464 76676,6917.888,95.438,540.593,538.913,0.0
53402.0,STARLINK-4499,PAYLOAD,2023-12-23 19:03:41,15.08840984,0.0001241,53.2168,146.4138,80.5742,279.5391,6.3124e-05,7.17e-06,0.0,0 STARLINK-4499,1 53402U 22097Q   23357.79423047  .00000717  00000-0  63124-4 0  9995,2 53402  53.2168 146.4138 0001241  80.5742 279.5391 15.08840984 76211,6917.877,95.437,540.601,538.884,0.0
53402.0,STARLINK-4499,PAYLOAD,2023-12-24 09:22:10,15.08817234,0.0001246,53.2177,143.7397,75.8428,284.2703,0.0002797,4.164e-05,0.0,0 STARLINK-4499,1 53402U 22097Q   23358.39039767  .00004164  00000-0  27970-3 0  9992,2 53402  53.2177 143.7397 0001246  75.8428 284.2703 15.08817234 76303,6917.95,95.439,540.677,538.953,0.0
53402.0,STARLINK-4499,PAYLOAD,2023-12-24 14:08:19,15.08839517,0.0001215,53.2163,142.8489,69.4697,290.6425,4.4747e-05,4.24e-06,0.0,0 STARLINK-4499,1 53402U 22097Q   23358.58911384  .00000424  00000-0  44747-4 0  9994,2 53402  53.2163 142.8489 0001215  69.4697 290.6425 15.08839517 76820,6917.882,95.438,540.587,538.906,0.0
53402.0,STARLINK-4499,PAYLOAD,2023-12-24 18:54:28,15.0884886,0.000122,53.2167,141.9544,85.7122,274.4009,0.00011719,1.578e-05,0.0,0 STARLINK-4499,1 53402U 22097Q   23358.78782533  .00001578  00000-0  11719-3 0  9991,2 53402  53.2167 141.9544 0001220  85.7122 274.4009 15.08848860 76364,6917.853,95.437,540.562,538.874,0.0
53402.0,STARLINK-4499,PAYLOAD,2023-12-25 09:12:57,15.08837703,0.0001214,53.2172,139.2776,112.004,248.1081,4.9841e-05,5.05e-06,0.0,0 STARLINK-4499,1 53402U 22097Q   23359.38399426  .00000505  00000-0  49841-4 0  9990,2 53402  53.2172 139.2776 0001214 112.0040 248.1081 15.08837703 76455,6917.887,95.438,540.592,538.913,0.0
53402.0,STARLINK-4499,PAYLOAD,2023-12-25 13:59:06,15.08839071,0.0001118,53.2157,138.3864,105.8506,254.261,3.6413e-05,2.92e-06,0.0,0 STARLINK-4499,1 53402U 22097Q   23359.58271365  .00000292  00000-0  36413-4 0  9997,2 53402  53.2157 138.3864 0001118 105.8506 254.2610 15.08839071 76979,6917.883,95.438,540.522,538.975,0.0
53402.0,STARLINK-4499,PAYLOAD,2023-12-25 17:09:52,15.08843616,0.0001393,53.2166,137.7925,71.1863,288.928,9.7482e-05,1.264e-05,0.0,0 STARLINK-4499,1 53402U 22097Q   23359.71519046  .00001264  00000-0  97482-4 0  9996,2 53402  53.2166 137.7925 0001393  71.1863 288.9280 15.08843616 76502,6917.869,95.437,540.698,538.771,0.0
53402.0,STARLINK-4499,PAYLOAD,2023-12-26 09:03:44,15.08838546,0.00013,53.2169,134.8179,83.8479,276.2661,-5.9271e-06,-3.82e-06,0.0,0 STARLINK-4499,1 53402U 22097Q   23360.37759838 -.00000382  00000-0 -59271-5 0  9992,2 53402  53.2169 134.8179 0001300  83.8479 276.2661 15.08838546 76605,6917.885,95.438,540.649,538.851,0.0
